FENGYUN 1C DEB          
1 35148U 99025DMC 17345.93124704  .00001161  00000-0  26838-3 0  9995
2 35148  98.9287 231.5598 0092861  18.8981 341.5623 14.54762685536747
